[{"OBJECT_NAME":"STARLINK-37041","OBJECT_ID":"2026-044D","EPOCH":"2026-04-01T20:00:01.999008","MEAN_MOTION":15.58239092,"ECCENTRICITY":0.0001822,"INCLINATION":97.2848,"RA_OF_ASC_NODE":53.0633,"ARG_OF_PERICENTER":96.4233,"MEAN_ANOMALY":132.4454,"EPHEMERIS_TYPE":0,"CLASSIFICATION_TYPE":"U","NORAD_CAT_ID":68104,"ELEMENT_SET_NO":999,"REV_AT_EPOCH":507,"BSTAR":-0.028189,"MEAN_MOTION_DOT":-0.01883481,"MEAN_MOTION_DDOT":0},{"OBJECT_NAME":"STARLINK-37021","OBJECT_ID":"2026-044E","EPOCH":"2026-04-01T20:00:01.999008","MEAN_MOTION":15.56307491,"ECCENTRICITY":0.0002019,"INCLINATION":97.2852,"RA_OF_ASC_NODE":53.057,"ARG_OF_PERICENTER":88.4096,"MEAN_ANOMALY":119.305,"EPHEMERIS_TYPE":0,"CLASSIFICATION_TYPE":"U","NORAD_CAT_ID":68105,"ELEMENT_SET_NO":999,"REV_AT_EPOCH":507,"BSTAR":-0.029372,"MEAN_MOTION_DOT":-0.01831907,"MEAN_MOTION_DDOT":0},{"OBJECT_NAME":"STARLINK-37024","OBJECT_ID":"2026-044F","EPOCH":"2026-04-01T20:00:01.999008","MEAN_MOTION":15.58396791,"ECCENTRICITY":0.0001788,"INCLINATION":97.2849,"RA_OF_ASC_NODE":53.0695,"ARG_OF_PERICENTER":97.873,"MEAN_ANOMALY":147.2312,"EPHEMERIS_TYPE":0,"CLASSIFICATION_TYPE":"U","NORAD_CAT_ID":68106,"ELEMENT_SET_NO":999,"REV_AT_EPOCH":507,"BSTAR":-0.028068,"MEAN_MOTION_DOT":-0.01886255,"MEAN_MOTION_DDOT":0},{"OBJECT_NAME":"STARLINK-37005","OBJECT_ID":"2026-044G","EPOCH":"2026-04-01T20:00:01.999008","MEAN_MOTION":15.57642275,"ECCENTRICITY":0.0001844,"INCLINATION":97.2849,"RA_OF_ASC_NODE":53.0582,"ARG_OF_PERICENTER":98.6031,"MEAN_ANOMALY":119.4525,"EPHEMERIS_TYPE":0,"CLASSIFICATION_TYPE":"U","NORAD_CAT_ID":68107,"ELEMENT_SET_NO":999,"REV_AT_EPOCH":507,"BSTAR":-0.028873,"MEAN_MOTION_DOT":-0.01885928,"MEAN_MOTION_DDOT":0},{"OBJECT_NAME":"STARLINK-37017","OBJECT_ID":"2026-044H","EPOCH":"2026-04-01T20:00:01.999008","MEAN_MOTION":15.59061248,"ECCENTRICITY":0.0001833,"INCLINATION":97.2848,"RA_OF_ASC_NODE":53.0749,"ARG_OF_PERICENTER":101.9832,"MEAN_ANOMALY":154.3589,"EPHEMERIS_TYPE":0,"CLASSIFICATION_TYPE":"U","NORAD_CAT_ID":68108,"ELEMENT_SET_NO":999,"REV_AT_EPOCH":507,"BSTAR":-0.027528,"MEAN_MOTION_DOT":-0.01895981,"MEAN_MOTION_DDOT":0},{"OBJECT_NAME":"STARLINK-36833","OBJECT_ID":"2026-044J","EPOCH":"2026-04-01T20:00:01.999008","MEAN_MOTION":15.59499153,"ECCENTRICITY":0.0001681,"INCLINATION":97.2847,"RA_OF_ASC_NODE":53.0797,"ARG_OF_PERICENTER":96.1753,"MEAN_ANOMALY":174.1485,"EPHEMERIS_TYPE":0,"CLASSIFICATION_TYPE":"U","NORAD_CAT_ID":68109,"ELEMENT_SET_NO":999,"REV_AT_EPOCH":512,"BSTAR":-0.02703,"MEAN_MOTION_DOT":-0.01893249,"MEAN_MOTION_DDOT":0},{"OBJECT_NAME":"STARLINK-36830","OBJECT_ID":"2026-044K","EPOCH":"2026-04-01T20:00:01.999008","MEAN_MOTION":15.59366793,"ECCENTRICITY":0.0001755,"INCLINATION":97.2849,"RA_OF_ASC_NODE":53.0778,"ARG_OF_PERICENTER":98.0284,"MEAN_ANOMALY":166.522,"EPHEMERIS_TYPE":0,"CLASSIFICATION_TYPE":"U","NORAD_CAT_ID":68110,"ELEMENT_SET_NO":999,"REV_AT_EPOCH":512,"BSTAR":-0.027156,"MEAN_MOTION_DOT":-0.0189265,"MEAN_MOTION_DDOT":0},{"OBJECT_NAME":"STARLINK-36791","OBJECT_ID":"2026-044L","EPOCH":"2026-04-01T20:00:01.999008","MEAN_MOTION":15.59868231,"ECCENTRICITY":0.0001561,"INCLINATION":97.2847,"RA_OF_ASC_NODE":53.086,"ARG_OF_PERICENTER":97.889,"MEAN_ANOMALY":185.3669,"EPHEMERIS_TYPE":0,"CLASSIFICATION_TYPE":"U","NORAD_CAT_ID":68111,"ELEMENT_SET_NO":999,"REV_AT_EPOCH":507,"BSTAR":-0.026565,"MEAN_MOTION_DOT":-0.01887809,"MEAN_MOTION_DDOT":0},{"OBJECT_NAME":"STARLINK-36893","OBJECT_ID":"2026-044M","EPOCH":"2026-04-01T20:00:01.999008","MEAN_MOTION":15.60123031,"ECCENTRICITY":0.0001667,"INCLINATION":97.2849,"RA_OF_ASC_NODE":53.0893,"ARG_OF_PERICENTER":102.6136,"MEAN_ANOMALY":189.9113,"EPHEMERIS_TYPE":0,"CLASSIFICATION_TYPE":"U","NORAD_CAT_ID":68112,"ELEMENT_SET_NO":999,"REV_AT_EPOCH":512,"BSTAR":-0.026317,"MEAN_MOTION_DOT":-0.01888517,"MEAN_MOTION_DDOT":0},{"OBJECT_NAME":"STARLINK-36937","OBJECT_ID":"2026-044N","EPOCH":"2026-04-01T20:00:01.999008","MEAN_MOTION":15.60440901,"ECCENTRICITY":0.0001473,"INCLINATION":97.2848,"RA_OF_ASC_NODE":53.0939,"ARG_OF_PERICENTER":101.3469,"MEAN_ANOMALY":201.2691,"EPHEMERIS_TYPE":0,"CLASSIFICATION_TYPE":"U","NORAD_CAT_ID":68113,"ELEMENT_SET_NO":999,"REV_AT_EPOCH":507,"BSTAR":-0.025968,"MEAN_MOTION_DOT":-0.01886509,"MEAN_MOTION_DDOT":0},{"OBJECT_NAME":"STARLINK-36229","OBJECT_ID":"2026-044P","EPOCH":"2026-04-01T20:00:01.999008","MEAN_MOTION":15.60253494,"ECCENTRICITY":0.000168,"INCLINATION":97.2848,"RA_OF_ASC_NODE":53.091,"ARG_OF_PERICENTER":99.3869,"MEAN_ANOMALY":198.8271,"EPHEMERIS_TYPE":0,"CLASSIFICATION_TYPE":"U","NORAD_CAT_ID":68114,"ELEMENT_SET_NO":999,"REV_AT_EPOCH":512,"BSTAR":-0.026137,"MEAN_MOTION_DOT":-0.01885454,"MEAN_MOTION_DDOT":0},{"OBJECT_NAME":"STARLINK-36392","OBJECT_ID":"2026-044Q","EPOCH":"2026-04-01T20:00:01.999008","MEAN_MOTION":15.57689659,"ECCENTRICITY":0.0001825,"INCLINATION":97.285,"RA_OF_ASC_NODE":53.0832,"ARG_OF_PERICENTER":100.0767,"MEAN_ANOMALY":171.0458,"EPHEMERIS_TYPE":0,"CLASSIFICATION_TYPE":"U","NORAD_CAT_ID":68115,"ELEMENT_SET_NO":999,"REV_AT_EPOCH":512,"BSTAR":-0.028003,"MEAN_MOTION_DOT":-0.01838355,"MEAN_MOTION_DDOT":0},{"OBJECT_NAME":"STARLINK-36805","OBJECT_ID":"2026-044R","EPOCH":"2026-04-01T20:00:01.999008","MEAN_MOTION":15.59070839,"ECCENTRICITY":0.0001602,"INCLINATION":97.285,"RA_OF_ASC_NODE":53.0889,"ARG_OF_PERICENTER":103.504,"MEAN_ANOMALY":189.0749,"EPHEMERIS_TYPE":0,"CLASSIFICATION_TYPE":"U","NORAD_CAT_ID":68116,"ELEMENT_SET_NO":999,"REV_AT_EPOCH":512,"BSTAR":-0.027337,"MEAN_MOTION_DOT":-0.01884788,"MEAN_MOTION_DDOT":0},{"OBJECT_NAME":"STARLINK-36844","OBJECT_ID":"2026-044S","EPOCH":"2026-04-01T20:00:01.999008","MEAN_MOTION":15.61137788,"ECCENTRICITY":0.0001437,"INCLINATION":97.2849,"RA_OF_ASC_NODE":53.1036,"ARG_OF_PERICENTER":96.5547,"MEAN_ANOMALY":230.6164,"EPHEMERIS_TYPE":0,"CLASSIFICATION_TYPE":"U","NORAD_CAT_ID":68117,"ELEMENT_SET_NO":999,"REV_AT_EPOCH":507,"BSTAR":-0.025302,"MEAN_MOTION_DOT":-0.01888026,"MEAN_MOTION_DDOT":0},{"OBJECT_NAME":"STARLINK-36789","OBJECT_ID":"2026-044T","EPOCH":"2026-04-01T20:00:01.999008","MEAN_MOTION":15.61976481,"ECCENTRICITY":0.0001455,"INCLINATION":97.2851,"RA_OF_ASC_NODE":53.1086,"ARG_OF_PERICENTER":95.9275,"MEAN_ANOMALY":242.9214,"EPHEMERIS_TYPE":0,"CLASSIFICATION_TYPE":"U","NORAD_CAT_ID":68118,"ELEMENT_SET_NO":999,"REV_AT_EPOCH":507,"BSTAR":-0.02456,"MEAN_MOTION_DOT":-0.01892744,"MEAN_MOTION_DDOT":0},{"OBJECT_NAME":"STARLINK-36850","OBJECT_ID":"2026-044U","EPOCH":"2026-04-01T20:00:01.999008","MEAN_MOTION":15.61985166,"ECCENTRICITY":0.0001556,"INCLINATION":97.2851,"RA_OF_ASC_NODE":53.1098,"ARG_OF_PERICENTER":89.6921,"MEAN_ANOMALY":251.3091,"EPHEMERIS_TYPE":0,"CLASSIFICATION_TYPE":"U","NORAD_CAT_ID":68119,"ELEMENT_SET_NO":999,"REV_AT_EPOCH":507,"BSTAR":-0.024431,"MEAN_MOTION_DOT":-0.01884522,"MEAN_MOTION_DDOT":0},{"OBJECT_NAME":"STARLINK-36868","OBJECT_ID":"2026-044V","EPOCH":"2026-04-01T20:00:01.999008","MEAN_MOTION":15.62541971,"ECCENTRICITY":0.0001428,"INCLINATION":97.2853,"RA_OF_ASC_NODE":53.1165,"ARG_OF_PERICENTER":93.4595,"MEAN_ANOMALY":261.5752,"EPHEMERIS_TYPE":0,"CLASSIFICATION_TYPE":"U","NORAD_CAT_ID":68120,"ELEMENT_SET_NO":999,"REV_AT_EPOCH":507,"BSTAR":-0.024162,"MEAN_MOTION_DOT":-0.01902364,"MEAN_MOTION_DDOT":0}]
