STARLINK-37041          
1 68104U 26044D   26091.83335647 -.01883481  00000+0 -28189-1 0  9995
2 68104  97.2848  53.0633 0001822  96.4233 132.4454 15.58239092  5078
STARLINK-37021          
1 68105U 26044E   26091.83335647 -.01831907  00000+0 -29372-1 0  9997
2 68105  97.2852  53.0570 0002019  88.4096 119.3050 15.56307491  5074
STARLINK-37024          
1 68106U 26044F   26091.83335647 -.01886255  00000+0 -28068-1 0  9995
2 68106  97.2849  53.0695 0001788  97.8730 147.2312 15.58396791  5074
STARLINK-37005          
1 68107U 26044G   26091.83335647 -.01885928  00000+0 -28873-1 0  9996
2 68107  97.2849  53.0582 0001844  98.6031 119.4525 15.57642275  5073
STARLINK-37017          
1 68108U 26044H   26091.83335647 -.01895981  00000+0 -27528-1 0  9993
2 68108  97.2848  53.0749 0001833 101.9832 154.3589 15.59061248  5078
STARLINK-36833          
1 68109U 26044J   26091.83335647 -.01893249  00000+0 -27030-1 0  9997
2 68109  97.2847  53.0797 0001681  96.1753 174.1485 15.59499153  5120
STARLINK-36830          
1 68110U 26044K   26091.83335647 -.01892650  00000+0 -27156-1 0  9993
2 68110  97.2849  53.0778 0001755  98.0284 166.5220 15.59366793  5120
STARLINK-36791          
1 68111U 26044L   26091.83335647 -.01887809  00000+0 -26565-1 0  9997
2 68111  97.2847  53.0860 0001561  97.8890 185.3669 15.59868231  5070
STARLINK-36893          
1 68112U 26044M   26091.83335647 -.01888517  00000+0 -26317-1 0  9990
2 68112  97.2849  53.0893 0001667 102.6136 189.9113 15.60123031  5128
STARLINK-36937          
1 68113U 26044N   26091.83335647 -.01886509  00000+0 -25968-1 0  9991
2 68113  97.2848  53.0939 0001473 101.3469 201.2691 15.60440901  5070
STARLINK-36229          
1 68114U 26044P   26091.83335647 -.01885454  00000+0 -26137-1 0  9999
2 68114  97.2848  53.0910 0001680  99.3869 198.8271 15.60253494  5120
STARLINK-36392          
1 68115U 26044Q   26091.83335647 -.01838355  00000+0 -28003-1 0  9992
2 68115  97.2850  53.0832 0001825 100.0767 171.0458 15.57689659  5127
STARLINK-36805          
1 68116U 26044R   26091.83335647 -.01884788  00000+0 -27337-1 0  9993
2 68116  97.2850  53.0889 0001602 103.5040 189.0749 15.59070839  5123
STARLINK-36844          
1 68117U 26044S   26091.83335647 -.01888026  00000+0 -25302-1 0  9993
2 68117  97.2849  53.1036 0001437  96.5547 230.6164 15.61137788  5074
STARLINK-36789          
1 68118U 26044T   26091.83335647 -.01892744  00000+0 -24560-1 0  9991
2 68118  97.2851  53.1086 0001455  95.9275 242.9214 15.61976481  5077
STARLINK-36850          
1 68119U 26044U   26091.83335647 -.01884522  00000+0 -24431-1 0  9994
2 68119  97.2851  53.1098 0001556  89.6921 251.3091 15.61985166  5078
STARLINK-36868          
1 68120U 26044V   26091.83335647 -.01902364  00000+0 -24162-1 0  9992
2 68120  97.2853  53.1165 0001428  93.4595 261.5752 15.62541971  5075
